[{"OBJECT_NAME":"FLOCK 4BE-11","OBJECT_ID":"2024-149AK","EPOCH":"2026-03-28T18:14:32.341920","MEAN_MOTION":15.40127079,"ECCENTRICITY":0.0004434,"INCLINATION":97.3724,"RA_OF_ASC_NODE":171.1338,"ARG_OF_PERICENTER":185.573,"MEAN_ANOMALY":174.5468,"EPHEMERIS_TYPE":0,"CLASSIFICATION_TYPE":"U","NORAD_CAT_ID":60501,"ELEMENT_SET_NO":999,"REV_AT_EPOCH":8996,"BSTAR":0.00060016,"MEAN_MOTION_DOT":0.00024013,"MEAN_MOTION_DDOT":0},{"OBJECT_NAME":"FLOCK 4BE-33","OBJECT_ID":"2024-149AL","EPOCH":"2026-03-28T18:57:27.840384","MEAN_MOTION":15.72960541,"ECCENTRICITY":0.000717,"INCLINATION":97.365,"RA_OF_ASC_NODE":173.2852,"ARG_OF_PERICENTER":197.0638,"MEAN_ANOMALY":163.0385,"EPHEMERIS_TYPE":0,"CLASSIFICATION_TYPE":"U","NORAD_CAT_ID":60502,"ELEMENT_SET_NO":999,"REV_AT_EPOCH":9010,"BSTAR":0.0020548,"MEAN_MOTION_DOT":0.0028843,"MEAN_MOTION_DDOT":0},{"OBJECT_NAME":"FLOCK 4BE-10","OBJECT_ID":"2024-149AM","EPOCH":"2026-03-28T18:47:18.417984","MEAN_MOTION":15.86533636,"ECCENTRICITY":0.0005047,"INCLINATION":97.3666,"RA_OF_ASC_NODE":175.2603,"ARG_OF_PERICENTER":233.9187,"MEAN_ANOMALY":126.1617,"EPHEMERIS_TYPE":0,"CLASSIFICATION_TYPE":"U","NORAD_CAT_ID":60503,"ELEMENT_SET_NO":999,"REV_AT_EPOCH":9020,"BSTAR":0.0022021,"MEAN_MOTION_DOT":0.00589989,"MEAN_MOTION_DDOT":0},{"OBJECT_NAME":"YAM-7","OBJECT_ID":"2024-149AN","EPOCH":"2026-03-28T17:51:24.403680","MEAN_MOTION":15.30633431,"ECCENTRICITY":0.0002965,"INCLINATION":97.3811,"RA_OF_ASC_NODE":168.3832,"ARG_OF_PERICENTER":193.7619,"MEAN_ANOMALY":166.3541,"EPHEMERIS_TYPE":0,"CLASSIFICATION_TYPE":"U","NORAD_CAT_ID":60504,"ELEMENT_SET_NO":999,"REV_AT_EPOCH":8974,"BSTAR":0.00031508,"MEAN_MOTION_DOT":9.257e-5,"MEAN_MOTION_DDOT":0},{"OBJECT_NAME":"FLOCK 4BE-24","OBJECT_ID":"2024-149AP","EPOCH":"2026-03-28T19:24:23.102208","MEAN_MOTION":15.39981547,"ECCENTRICITY":0.0004397,"INCLINATION":97.3739,"RA_OF_ASC_NODE":171.4279,"ARG_OF_PERICENTER":195.3012,"MEAN_ANOMALY":164.8102,"EPHEMERIS_TYPE":0,"CLASSIFICATION_TYPE":"U","NORAD_CAT_ID":60505,"ELEMENT_SET_NO":999,"REV_AT_EPOCH":8998,"BSTAR":0.00058326,"MEAN_MOTION_DOT":0.00023221,"MEAN_MOTION_DDOT":0},{"OBJECT_NAME":"LUR-1","OBJECT_ID":"2024-149AQ","EPOCH":"2026-03-28T18:38:34.308672","MEAN_MOTION":15.28977185,"ECCENTRICITY":0.0003309,"INCLINATION":97.3772,"RA_OF_ASC_NODE":167.2441,"ARG_OF_PERICENTER":210.1992,"MEAN_ANOMALY":149.9057,"EPHEMERIS_TYPE":0,"CLASSIFICATION_TYPE":"U","NORAD_CAT_ID":60506,"ELEMENT_SET_NO":999,"REV_AT_EPOCH":8968,"BSTAR":0.00033229,"MEAN_MOTION_DOT":9.28e-5,"MEAN_MOTION_DDOT":0},{"OBJECT_NAME":"TANAGER-1","OBJECT_ID":"2024-149AR","EPOCH":"2026-03-28T08:43:51.558816","MEAN_MOTION":15.43596939,"ECCENTRICITY":0.00075615,"INCLINATION":97.3762,"RA_OF_ASC_NODE":180.9996,"ARG_OF_PERICENTER":217.2755,"MEAN_ANOMALY":142.7969,"EPHEMERIS_TYPE":0,"CLASSIFICATION_TYPE":"U","NORAD_CAT_ID":60507,"ELEMENT_SET_NO":999,"REV_AT_EPOCH":9056,"BSTAR":0.00054925687,"MEAN_MOTION_DOT":0.00024678,"MEAN_MOTION_DDOT":0},{"OBJECT_NAME":"EAGLEEYE","OBJECT_ID":"2024-149AS","EPOCH":"2026-03-28T18:49:00.668928","MEAN_MOTION":15.59271906,"ECCENTRICITY":0.0003817,"INCLINATION":97.3745,"RA_OF_ASC_NODE":177.4448,"ARG_OF_PERICENTER":189.5622,"MEAN_ANOMALY":170.5563,"EPHEMERIS_TYPE":0,"CLASSIFICATION_TYPE":"U","NORAD_CAT_ID":60508,"ELEMENT_SET_NO":999,"REV_AT_EPOCH":9036,"BSTAR":0.0010124,"MEAN_MOTION_DOT":0.00080115,"MEAN_MOTION_DDOT":0},{"OBJECT_NAME":"FLOCK 4BE-29","OBJECT_ID":"2024-149AT","EPOCH":"2026-03-28T19:39:16.321824","MEAN_MOTION":15.41301228,"ECCENTRICITY":0.0002808,"INCLINATION":97.3826,"RA_OF_ASC_NODE":172.6465,"ARG_OF_PERICENTER":197.4944,"MEAN_ANOMALY":162.6206,"EPHEMERIS_TYPE":0,"CLASSIFICATION_TYPE":"U","NORAD_CAT_ID":60509,"ELEMENT_SET_NO":999,"REV_AT_EPOCH":9002,"BSTAR":0.00057815,"MEAN_MOTION_DOT":0.00024039,"MEAN_MOTION_DDOT":0},{"OBJECT_NAME":"TRANSPORTER-11 OBJECT AU","OBJECT_ID":"2024-149AU","EPOCH":"2026-03-28T18:18:46.611936","MEAN_MOTION":15.37872848,"ECCENTRICITY":0.0003513,"INCLINATION":97.3754,"RA_OF_ASC_NODE":170.9783,"ARG_OF_PERICENTER":195.5593,"MEAN_ANOMALY":164.5545,"EPHEMERIS_TYPE":0,"CLASSIFICATION_TYPE":"U","NORAD_CAT_ID":60510,"ELEMENT_SET_NO":999,"REV_AT_EPOCH":8994,"BSTAR":0.00050933,"MEAN_MOTION_DOT":0.00018905,"MEAN_MOTION_DDOT":0},{"OBJECT_NAME":"FLOCK 4BE-2","OBJECT_ID":"2024-149AV","EPOCH":"2026-03-28T19:28:55.591392","MEAN_MOTION":15.44998834,"ECCENTRICITY":0.0004137,"INCLINATION":97.3826,"RA_OF_ASC_NODE":173.3132,"ARG_OF_PERICENTER":197.4966,"MEAN_ANOMALY":162.614,"EPHEMERIS_TYPE":0,"CLASSIFICATION_TYPE":"U","NORAD_CAT_ID":60511,"ELEMENT_SET_NO":999,"REV_AT_EPOCH":9006,"BSTAR":0.0010745,"MEAN_MOTION_DOT":0.0005084,"MEAN_MOTION_DDOT":0},{"OBJECT_NAME":"FLOCK 4BE-13","OBJECT_ID":"2024-149AW","EPOCH":"2026-03-28T18:06:34.105824","MEAN_MOTION":15.39551983,"ECCENTRICITY":0.0004421,"INCLINATION":97.3737,"RA_OF_ASC_NODE":171.4639,"ARG_OF_PERICENTER":184.6941,"MEAN_ANOMALY":175.4264,"EPHEMERIS_TYPE":0,"CLASSIFICATION_TYPE":"U","NORAD_CAT_ID":60512,"ELEMENT_SET_NO":999,"REV_AT_EPOCH":8998,"BSTAR":0.00052397,"MEAN_MOTION_DOT":0.00020553,"MEAN_MOTION_DDOT":0},{"OBJECT_NAME":"FLOCK 4BE-27","OBJECT_ID":"2024-149AX","EPOCH":"2026-03-28T18:00:51.769152","MEAN_MOTION":15.32992973,"ECCENTRICITY":0.0003387,"INCLINATION":97.3847,"RA_OF_ASC_NODE":169.6456,"ARG_OF_PERICENTER":209.6749,"MEAN_ANOMALY":150.4301,"EPHEMERIS_TYPE":0,"CLASSIFICATION_TYPE":"U","NORAD_CAT_ID":60513,"ELEMENT_SET_NO":999,"REV_AT_EPOCH":8981,"BSTAR":0.00036481,"MEAN_MOTION_DOT":0.00011555,"MEAN_MOTION_DDOT":0},{"OBJECT_NAME":"FLOCK 4BE-9","OBJECT_ID":"2024-149AY","EPOCH":"2026-03-28T18:08:15.850464","MEAN_MOTION":15.3826378,"ECCENTRICITY":0.0002853,"INCLINATION":97.3809,"RA_OF_ASC_NODE":171.3953,"ARG_OF_PERICENTER":196.2414,"MEAN_ANOMALY":163.874,"EPHEMERIS_TYPE":0,"CLASSIFICATION_TYPE":"U","NORAD_CAT_ID":60514,"ELEMENT_SET_NO":999,"REV_AT_EPOCH":8994,"BSTAR":0.00050343,"MEAN_MOTION_DOT":0.00018923,"MEAN_MOTION_DDOT":0},{"OBJECT_NAME":"FLOCK 4BE-8","OBJECT_ID":"2024-149AZ","EPOCH":"2026-03-28T18:13:39.025344","MEAN_MOTION":16.01416828,"ECCENTRICITY":0.0009331,"INCLINATION":97.3543,"RA_OF_ASC_NODE":176.1048,"ARG_OF_PERICENTER":271.5899,"MEAN_ANOMALY":88.4311,"EPHEMERIS_TYPE":0,"CLASSIFICATION_TYPE":"U","NORAD_CAT_ID":60515,"ELEMENT_SET_NO":999,"REV_AT_EPOCH":9028,"BSTAR":0.0022466,"MEAN_MOTION_DOT":0.01224963,"MEAN_MOTION_DDOT":0.00080888},{"OBJECT_NAME":"FLOCK 4BE-6","OBJECT_ID":"2024-149BA","EPOCH":"2026-03-28T18:59:56.245344","MEAN_MOTION":15.37258293,"ECCENTRICITY":0.0003549,"INCLINATION":97.381,"RA_OF_ASC_NODE":170.9274,"ARG_OF_PERICENTER":199.4443,"MEAN_ANOMALY":160.6667,"EPHEMERIS_TYPE":0,"CLASSIFICATION_TYPE":"U","NORAD_CAT_ID":60516,"ELEMENT_SET_NO":999,"REV_AT_EPOCH":8991,"BSTAR":0.00050377,"MEAN_MOTION_DOT":0.00018329,"MEAN_MOTION_DDOT":0}]
